NORAD_CAT_ID,OBJECT_NAME,OBJECT_TYPE,EPOCH,MEAN_MOTION,ECCENTRICITY,INCLINATION,RA_OF_ASC_NODE,ARG_OF_PERICENTER,MEAN_ANOMALY,BSTAR,MEAN_MOTION_DOT,MEAN_MOTION_DDOT,TLE_LINE0,TLE_LINE1,TLE_LINE2,SEMIMAJOR_AXIS,PERIOD,APOGEE,PERIGEE,DECAYED
55280.0,STARLINK-5331,PAYLOAD,2024-04-03 12:51:57,14.98344573,0.0003033,70.001,22.2774,269.3619,90.7192,0.00014129,1.594e-05,0.0,0 STARLINK-5331,1 55280U 23010M   24094.53608588  .00001594  00000-0  14129-3 0  9997,2 55280  70.0010  22.2774 0003033 269.3619  90.7192 14.98344573 67154,6950.148,96.106,574.121,569.905,0.0
55280.0,STARLINK-5331,PAYLOAD,2024-04-03 19:16:34,14.98229209,0.0002699,70.0011,21.6048,257.5657,102.52,0.0025591,0.00030495,0.0,0 STARLINK-5331,1 55280U 23010M   24094.80317495  .00030495  00000-0  25591-2 0  9997,2 55280  70.0011  21.6048 0002699 257.5657 102.5200 14.98229209 66889,6950.505,96.113,574.246,570.494,0.0
55280.0,STARLINK-5331,PAYLOAD,2024-04-03 20:52:42,14.98238671,0.0002341,70.0011,21.4365,257.9319,102.1578,0.0024738,0.00029478,0.0,0 STARLINK-5331,1 55280U 23010M   24094.86993832  .00029478  00000-0  24738-2 0  9999,2 55280  70.0011  21.4365 0002341 257.9319 102.1578 14.98238671 67206,6950.475,96.113,573.967,570.713,0.0
55280.0,STARLINK-5331,PAYLOAD,2024-04-04 04:53:18,14.9834576,0.0003024,70.0024,20.5954,269.728,90.3533,0.00028892,3.357e-05,0.0,0 STARLINK-5331,1 55280U 23010M   24095.20369083  .00003357  00000-0  28892-3 0  9997,2 55280  70.0024  20.5954 0003024 269.7280  90.3533 14.98345760 66948,6950.144,96.106,574.111,569.907,0.0
55280.0,STARLINK-5331,PAYLOAD,2024-04-04 12:53:59,14.98338127,0.0002974,70.0022,19.7534,269.1819,90.9,0.00011217,1.246e-05,0.0,0 STARLINK-5331,1 55280U 23010M   24095.53749205  .00001246  00000-0  11217-3 0  9999,2 55280  70.0022  19.7534 0002974 269.1819  90.9000 14.98338127 66994,6950.168,96.106,574.1,569.966,0.0
55280.0,STARLINK-5331,PAYLOAD,2024-04-04 22:30:47,14.98339233,0.0002984,70.0012,18.7439,269.593,90.4887,-2.4141e-05,-3.81e-06,0.0,0 STARLINK-5331,1 55280U 23010M   24095.93805210 -.00000381  00000-0 -24141-4 0  9994,2 55280  70.0012  18.7439 0002984 269.5930  90.4887 14.98339233 67364,6950.164,96.106,574.103,569.955,0.0
55280.0,STARLINK-5331,PAYLOAD,2024-04-05 04:55:19,14.98344153,0.0003156,70.0011,18.0706,271.9659,88.1138,1.6034e-05,9.8e-07,0.0,0 STARLINK-5331,1 55280U 23010M   24096.20508551  .00000098  00000-0  16034-4 0  9998,2 55280  70.0011  18.0706 0003156 271.9659  88.1138 14.98344153 67405,6950.149,96.106,574.208,569.821,0.0
55280.0,STARLINK-5331,PAYLOAD,2024-04-05 19:20:31,14.98338103,0.0002929,70.0014,16.5557,269.2014,90.881,4.6353e-05,4.6e-06,0.0,0 STARLINK-5331,1 55280U 23010M   24096.80592431  .00000460  00000-0  46353-4 0  9994,2 55280  70.0014  16.5557 0002929 269.2014  90.8810 14.98338103 67187,6950.168,96.106,574.069,569.997,0.0
55280.0,STARLINK-5331,PAYLOAD,2024-04-05 20:56:39,14.98338248,0.0002954,70.0012,16.3874,268.9451,91.1369,4.7593e-05,4.75e-06,0.0,0 STARLINK-5331,1 55280U 23010M   24096.87268380  .00000475  00000-0  47593-4 0  9997,2 55280  70.0012  16.3874 0002954 268.9451  91.1369 14.98338248 67503,6950.167,96.106,574.085,569.979,0.0
55280.0,STARLINK-5331,PAYLOAD,2024-04-06 11:21:52,14.98331235,0.0002676,70.0021,14.8737,267.8852,92.2,4.399e-05,4.32e-06,0.0,0 STARLINK-5331,1 55280U 23010M   24097.47352581  .00000432  00000-0  43990-4 0  9991,2 55280  70.0021  14.8737 0002676 267.8852  92.2000 14.98331235 67590,6950.189,96.107,573.914,570.194,0.0
55280.0,STARLINK-5331,PAYLOAD,2024-04-06 17:46:24,14.98331328,0.0002817,70.0031,14.2005,269.9888,90.0948,7.8629e-05,8.45e-06,0.0,0 STARLINK-5331,1 55280U 23010M   24097.74056439  .00000845  00000-0  78629-4 0  9999,2 55280  70.0031  14.2005 0002817 269.9888  90.0948 14.98331328 67323,6950.189,96.107,574.012,570.096,0.0
55280.0,STARLINK-5331,PAYLOAD,2024-04-06 22:34:49,14.98331424,0.0002745,70.0017,13.6946,271.6452,88.4392,1.9165e-05,1.36e-06,0.0,0 STARLINK-5331,1 55280U 23010M   24097.94084550  .00000136  00000-0  19165-4 0  9999,2 55280  70.0017  13.6946 0002745 271.6452  88.4392 14.98331424 67669,6950.188,96.107,573.961,570.146,0.0
55280.0,STARLINK-5331,PAYLOAD,2024-04-07 11:23:53,14.98343258,0.0002785,70.0014,12.3482,272.7236,87.3605,-0.00023996,-2.956e-05,0.0,0 STARLINK-5331,1 55280U 23010M   24098.47492150 -.00002956  00000-0 -23996-3 0  9997,2 55280  70.0014  12.3482 0002785 272.7236  87.3605 14.98343258 67745,6950.152,96.106,573.953,570.081,0.0
55280.0,STARLINK-5331,PAYLOAD,2024-04-07 21:00:41,14.98332897,0.0002733,70.0014,11.3384,266.9562,93.1284,-7.9788e-06,-1.88e-06,0.0,0 STARLINK-5331,1 55280U 23010M   24098.87548482 -.00000188  00000-0 -79788-5 0  9998,2 55280  70.0014  11.3384 0002733 266.9562  93.1284 14.98332897 67492,6950.184,96.107,573.948,570.149,0.0
55280.0,STARLINK-5331,PAYLOAD,2024-04-07 22:36:50,14.98331133,0.0002688,70.0017,11.1701,265.9323,94.1529,-1.588e-05,-2.82e-06,0.0,0 STARLINK-5331,1 55280U 23010M   24098.94224609 -.00000282  00000-0 -15880-4 0  9995,2 55280  70.0017  11.1701 0002688 265.9323  94.1529 14.98331133 67810,6950.189,96.107,573.923,570.186,0.0
55280.0,STARLINK-5331,PAYLOAD,2024-04-08 11:25:54,14.98334222,0.000294,70.0013,9.8236,263.8741,96.2083,2.4499e-05,1.99e-06,0.0,0 STARLINK-5331,1 55280U 23010M   24099.47632241  .00000199  00000-0  24499-4 0  9990,2 55280  70.0013   9.8236 0002940 263.8741  96.2083 14.98334222 67893,6950.18,96.107,574.088,570.001,0.0
55280.0,STARLINK-5331,PAYLOAD,2024-04-09 00:14:58,14.98331513,0.0002949,70.0011,8.477,271.1758,88.9064,0.00013766,1.55e-05,0.0,0 STARLINK-5331,1 55280U 23010M   24100.01040219  .00001550  00000-0  13766-3 0  9997,2 55280  70.0011   8.4770 0002949 271.1758  88.9064 14.98331513 67974,6950.188,96.107,574.103,570.004,0.0
55280.0,STARLINK-5331,PAYLOAD,2024-04-09 03:27:14,14.98333249,0.000296,70.0009,8.1401,271.1184,88.9636,0.00014972,1.694e-05,0.0,0 STARLINK-5331,1 55280U 23010M   24100.14392075  .00001694  00000-0  14972-3 0  9990,2 55280  70.0009   8.1401 0002960 271.1184  88.9636 14.98333249 67686,6950.183,96.107,574.105,569.991,0.0
55280.0,STARLINK-5331,PAYLOAD,2024-04-09 11:27:55,14.98330064,0.0002895,70.0007,7.2991,271.0163,89.0665,8.1043e-05,8.74e-06,0.0,0 STARLINK-5331,1 55280U 23010M   24100.47772419  .00000874  00000-0  81043-4 0  9993,2 55280  70.0007   7.2991 0002895 271.0163  89.0665 14.98330064 68048,6950.193,96.107,574.07,570.046,0.0
55280.0,STARLINK-5331,PAYLOAD,2024-04-09 22:40:51,14.98328337,0.0002958,70.0008,6.1207,270.5014,89.5807,9.5022e-05,1.041e-05,0.0,0 STARLINK-5331,1 55280U 23010M   24100.94504524  .00001041  00000-0  95022-4 0  9994,2 55280  70.0008   6.1207 0002958 270.5014  89.5807 14.98328337 68117,6950.198,96.107,574.119,570.007,0.0
55280.0,STARLINK-5331,PAYLOAD,2024-04-10 03:29:16,14.98330754,0.0002803,70.0012,5.6142,267.0648,93.0191,7.1589e-05,7.61e-06,0.0,0 STARLINK-5331,1 55280U 23010M   24101.14532425  .00000761  00000-0  71589-4 0  9998,2 55280  70.0012   5.6142 0002803 267.0648  93.0191 14.98330754 67837,6950.191,96.107,574.004,570.107,0.0
55280.0,STARLINK-5331,PAYLOAD,2024-04-10 11:29:56,14.98331005,0.0002859,70.0011,4.7726,268.9963,91.0869,4.5935e-05,4.55e-06,0.0,0 STARLINK-5331,1 55280U 23010M   24101.47912429  .00000455  00000-0  45935-4 0  9996,2 55280  70.0011   4.7726 0002859 268.9963  91.0869 14.98331005 68195,6950.19,96.107,574.042,570.068,0.0
55280.0,STARLINK-5331,PAYLOAD,2024-04-10 21:06:44,14.98330585,0.0002938,70.0003,3.7628,268.4981,91.5842,2.5081e-05,2.06e-06,0.0,0 STARLINK-5331,1 55280U 23010M   24101.87968457  .00000206  00000-0  25081-4 0  9996,2 55280  70.0003   3.7628 0002938 268.4981  91.5842 14.98330585 68254,6950.191,96.107,574.098,570.014,0.0
55280.0,STARLINK-5331,PAYLOAD,2024-04-11 03:31:16,14.98335015,0.0002904,70.0005,3.0897,268.2814,91.8013,1.8774e-05,1.31e-06,0.0,0 STARLINK-5331,1 55280U 23010M   24102.14672183  .00000131  00000-0  18774-4 0  9993,2 55280  70.0005   3.0897 0002904 268.2814  91.8013 14.98335015 67988,6950.177,96.107,574.061,570.024,0.0
55280.0,STARLINK-5331,PAYLOAD,2024-04-11 21:08:45,14.98331383,0.0002874,70.0006,1.2382,267.8131,92.2699,6.0548e-05,6.3e-06,0.0,0 STARLINK-5331,1 55280U 23010M   24102.88108268  .00000630  00000-0  60548-4 0  9992,2 55280  70.0006   1.2382 0002874 267.8131  92.2699 14.98331383 68408,6950.189,96.107,574.051,570.056,0.0
55280.0,STARLINK-5331,PAYLOAD,2024-04-12 03:33:17,14.98335632,0.0002839,70.0007,0.5649,268.0636,92.0197,0.00011143,1.237e-05,0.0,0 STARLINK-5331,1 55280U 23010M   24103.14811846  .00001237  00000-0  11143-3 0  9995,2 55280  70.0007   0.5649 0002839 268.0636  92.0197 14.98335632 68133,6950.175,96.107,574.014,570.067,0.0
55280.0,STARLINK-5331,PAYLOAD,2024-04-12 22:46:54,14.98331812,0.0002759,70.0008,358.5453,270.3644,89.7199,6.9062e-05,7.31e-06,0.0,0 STARLINK-5331,1 55280U 23010M   24103.94924107  .00000731  00000-0  69062-4 0  9990,2 55280  70.0008 358.5453 0002759 270.3644  89.7199 14.98331812 68567,6950.187,96.107,573.97,570.135,0.0
55280.0,STARLINK-5331,PAYLOAD,2024-04-13 01:59:10,14.98331703,0.0002654,70.0011,358.2104,262.5419,97.5439,7.3734e-05,7.87e-06,0.0,0 STARLINK-5331,1 55280U 23010M   24104.08276078  .00000787  00000-0  73734-4 0  9995,2 55280  70.0011 358.2104 0002654 262.5419  97.5439 14.98331703 68279,6950.188,96.107,573.897,570.208,0.0
55280.0,STARLINK-5331,PAYLOAD,2024-04-13 21:12:47,14.98333295,0.0002751,70.001,356.1902,255.6873,104.3981,3.0694e-05,2.73e-06,0.0,0 STARLINK-5331,1 55280U 23010M   24104.88387945  .00000273  00000-0  30694-4 0  9997,2 55280  70.0010 356.1902 0002751 255.6873 104.3981 14.98333295 68701,6950.183,96.107,573.96,570.136,0.0
55280.0,STARLINK-5331,PAYLOAD,2024-04-14 02:01:11,14.98332966,0.000277,70.001,355.6853,256.7035,103.3815,2.1501e-05,1.64e-06,0.0,0 STARLINK-5331,1 55280U 23010M   24105.08415948  .00000164  00000-0  21501-4 0  9991,2 55280  70.0010 355.6853 0002770 256.7035 103.3815 14.98332966 68421,6950.184,96.107,573.974,570.124,0.0
